[{"OBJECT_NAME":"STARLINK-33539","OBJECT_ID":"2025-063P","EPOCH":"2025-10-07T08:52:47.638848","MEAN_MOTION":15.30224469,"ECCENTRICITY":0.00017387,"INCLINATION":53.1599,"RA_OF_ASC_NODE":54.6743,"ARG_OF_PERICENTER":83.2072,"MEAN_ANOMALY":276.9127,"EPHEMERIS_TYPE":0,"CLASSIFICATION_TYPE":"U","NORAD_CAT_ID":63376,"ELEMENT_SET_NO":999,"REV_AT_EPOCH":3109,"BSTAR":0.0013585244,"MEAN_MOTION_DOT":0.00040125,"MEAN_MOTION_DDOT":0},{"OBJECT_NAME":"STARLINK-33634","OBJECT_ID":"2025-063Q","EPOCH":"2025-10-07T08:11:53.840832","MEAN_MOTION":15.30222187,"ECCENTRICITY":0.00017777,"INCLINATION":53.1607,"RA_OF_ASC_NODE":44.572,"ARG_OF_PERICENTER":79.6865,"MEAN_ANOMALY":280.4336,"EPHEMERIS_TYPE":0,"CLASSIFICATION_TYPE":"U","NORAD_CAT_ID":63377,"ELEMENT_SET_NO":999,"REV_AT_EPOCH":3128,"BSTAR":0.0013437878,"MEAN_MOTION_DOT":0.0003968,"MEAN_MOTION_DDOT":0},{"OBJECT_NAME":"STARLINK-33640","OBJECT_ID":"2025-063R","EPOCH":"2025-10-07T08:16:16.963392","MEAN_MOTION":15.29387561,"ECCENTRICITY":0.00013569,"INCLINATION":53.1618,"RA_OF_ASC_NODE":44.5882,"ARG_OF_PERICENTER":97.699,"MEAN_ANOMALY":262.4164,"EPHEMERIS_TYPE":0,"CLASSIFICATION_TYPE":"U","NORAD_CAT_ID":63378,"ELEMENT_SET_NO":999,"REV_AT_EPOCH":3128,"BSTAR":0.0010348497,"MEAN_MOTION_DOT":0.00029654,"MEAN_MOTION_DDOT":0},{"OBJECT_NAME":"STARLINK-33636","OBJECT_ID":"2025-063S","EPOCH":"2025-10-07T16:00:03.000096","MEAN_MOTION":15.30164541,"ECCENTRICITY":0.00014939,"INCLINATION":53.1615,"RA_OF_ASC_NODE":43.0293,"ARG_OF_PERICENTER":85.3532,"MEAN_ANOMALY":284.1339,"EPHEMERIS_TYPE":0,"CLASSIFICATION_TYPE":"U","NORAD_CAT_ID":63379,"ELEMENT_SET_NO":999,"REV_AT_EPOCH":570,"BSTAR":0.0010664127,"MEAN_MOTION_DOT":0.00031324,"MEAN_MOTION_DDOT":0},{"OBJECT_NAME":"STARLINK-33653","OBJECT_ID":"2025-063T","EPOCH":"2025-10-07T11:42:47.499264","MEAN_MOTION":15.30225174,"ECCENTRICITY":0.00010849,"INCLINATION":53.161,"RA_OF_ASC_NODE":44.0633,"ARG_OF_PERICENTER":91.9258,"MEAN_ANOMALY":268.1867,"EPHEMERIS_TYPE":0,"CLASSIFICATION_TYPE":"U","NORAD_CAT_ID":63380,"ELEMENT_SET_NO":999,"REV_AT_EPOCH":3125,"BSTAR":0.0011910302,"MEAN_MOTION_DOT":0.0003511,"MEAN_MOTION_DDOT":0},{"OBJECT_NAME":"STARLINK-33643","OBJECT_ID":"2025-063U","EPOCH":"2025-10-07T08:27:04.706784","MEAN_MOTION":15.30216233,"ECCENTRICITY":0.00025119,"INCLINATION":53.1607,"RA_OF_ASC_NODE":44.6377,"ARG_OF_PERICENTER":75.9328,"MEAN_ANOMALY":284.1952,"EPHEMERIS_TYPE":0,"CLASSIFICATION_TYPE":"U","NORAD_CAT_ID":63381,"ELEMENT_SET_NO":999,"REV_AT_EPOCH":3128,"BSTAR":0.0016728927,"MEAN_MOTION_DOT":0.00049545,"MEAN_MOTION_DDOT":0},{"OBJECT_NAME":"STARLINK-33633","OBJECT_ID":"2025-063V","EPOCH":"2025-10-07T12:21:43.666272","MEAN_MOTION":15.39633352,"ECCENTRICITY":0.0001441,"INCLINATION":53.1587,"RA_OF_ASC_NODE":42.8094,"ARG_OF_PERICENTER":69.1881,"MEAN_ANOMALY":290.9278,"EPHEMERIS_TYPE":0,"CLASSIFICATION_TYPE":"U","NORAD_CAT_ID":63382,"ELEMENT_SET_NO":999,"REV_AT_EPOCH":3127,"BSTAR":0.0015925583,"MEAN_MOTION_DOT":0.00063865,"MEAN_MOTION_DDOT":0},{"OBJECT_NAME":"STARLINK-33748","OBJECT_ID":"2025-063W","EPOCH":"2025-10-07T08:37:45.761952","MEAN_MOTION":15.30213079,"ECCENTRICITY":0.00018488,"INCLINATION":53.1603,"RA_OF_ASC_NODE":55.3314,"ARG_OF_PERICENTER":68.6299,"MEAN_ANOMALY":291.4899,"EPHEMERIS_TYPE":0,"CLASSIFICATION_TYPE":"U","NORAD_CAT_ID":63383,"ELEMENT_SET_NO":999,"REV_AT_EPOCH":3113,"BSTAR":0.00065270279,"MEAN_MOTION_DOT":0.00019029,"MEAN_MOTION_DDOT":0},{"OBJECT_NAME":"STARLINK-33658","OBJECT_ID":"2025-063X","EPOCH":"2025-10-07T12:02:34.776096","MEAN_MOTION":15.30200444,"ECCENTRICITY":0.00013713,"INCLINATION":53.1595,"RA_OF_ASC_NODE":44.1463,"ARG_OF_PERICENTER":100.1686,"MEAN_ANOMALY":259.9469,"EPHEMERIS_TYPE":0,"CLASSIFICATION_TYPE":"U","NORAD_CAT_ID":63384,"ELEMENT_SET_NO":999,"REV_AT_EPOCH":3130,"BSTAR":0.0021079439,"MEAN_MOTION_DOT":0.000626,"MEAN_MOTION_DDOT":0},{"OBJECT_NAME":"STARLINK-33616","OBJECT_ID":"2025-063Y","EPOCH":"2025-10-07T02:18:31.181472","MEAN_MOTION":15.30234493,"ECCENTRICITY":4.687e-5,"INCLINATION":53.1596,"RA_OF_ASC_NODE":56.542,"ARG_OF_PERICENTER":142.5137,"MEAN_ANOMALY":217.5896,"EPHEMERIS_TYPE":0,"CLASSIFICATION_TYPE":"U","NORAD_CAT_ID":63385,"ELEMENT_SET_NO":999,"REV_AT_EPOCH":3104,"BSTAR":0.0010937803,"MEAN_MOTION_DOT":0.00032211,"MEAN_MOTION_DDOT":0},{"OBJECT_NAME":"STARLINK-33571","OBJECT_ID":"2025-063Z","EPOCH":"2025-10-07T08:13:26.589504","MEAN_MOTION":15.30235567,"ECCENTRICITY":0.00016014,"INCLINATION":53.1582,"RA_OF_ASC_NODE":55.2082,"ARG_OF_PERICENTER":91.1234,"MEAN_ANOMALY":268.995,"EPHEMERIS_TYPE":0,"CLASSIFICATION_TYPE":"U","NORAD_CAT_ID":63386,"ELEMENT_SET_NO":999,"REV_AT_EPOCH":3108,"BSTAR":0.0017767708,"MEAN_MOTION_DOT":0.00052696,"MEAN_MOTION_DDOT":0},{"OBJECT_NAME":"STARLINK-33533","OBJECT_ID":"2025-063AA","EPOCH":"2025-10-07T15:15:26.470656","MEAN_MOTION":15.39612522,"ECCENTRICITY":0.00012005,"INCLINATION":53.1581,"RA_OF_ASC_NODE":42.8517,"ARG_OF_PERICENTER":85.7964,"MEAN_ANOMALY":274.3178,"EPHEMERIS_TYPE":0,"CLASSIFICATION_TYPE":"U","NORAD_CAT_ID":63387,"ELEMENT_SET_NO":999,"REV_AT_EPOCH":3128,"BSTAR":0.0013046392,"MEAN_MOTION_DOT":0.00052129,"MEAN_MOTION_DDOT":0},{"OBJECT_NAME":"STARLINK-33629","OBJECT_ID":"2025-063AB","EPOCH":"2025-10-06T18:27:17.227296","MEAN_MOTION":15.39649409,"ECCENTRICITY":5.682e-5,"INCLINATION":53.1588,"RA_OF_ASC_NODE":46.6836,"ARG_OF_PERICENTER":33.8363,"MEAN_ANOMALY":326.2678,"EPHEMERIS_TYPE":0,"CLASSIFICATION_TYPE":"U","NORAD_CAT_ID":63388,"ELEMENT_SET_NO":999,"REV_AT_EPOCH":3120,"BSTAR":0.0012929464,"MEAN_MOTION_DOT":0.00051719,"MEAN_MOTION_DDOT":0},{"OBJECT_NAME":"STARLINK-33656","OBJECT_ID":"2025-063AC","EPOCH":"2025-10-07T11:48:52.389792","MEAN_MOTION":15.3020485,"ECCENTRICITY":0.00010676,"INCLINATION":53.1598,"RA_OF_ASC_NODE":44.0891,"ARG_OF_PERICENTER":45.7041,"MEAN_ANOMALY":314.4047,"EPHEMERIS_TYPE":0,"CLASSIFICATION_TYPE":"U","NORAD_CAT_ID":63389,"ELEMENT_SET_NO":999,"REV_AT_EPOCH":3130,"BSTAR":0.00061383809,"MEAN_MOTION_DOT":0.00017867,"MEAN_MOTION_DDOT":0},{"OBJECT_NAME":"STARLINK-33531","OBJECT_ID":"2025-065A","EPOCH":"2025-10-07T07:28:06.492864","MEAN_MOTION":15.27611366,"ECCENTRICITY":7.244e-5,"INCLINATION":43.0021,"RA_OF_ASC_NODE":253.2024,"ARG_OF_PERICENTER":270.6167,"MEAN_ANOMALY":89.4602,"EPHEMERIS_TYPE":0,"CLASSIFICATION_TYPE":"U","NORAD_CAT_ID":63399,"ELEMENT_SET_NO":999,"REV_AT_EPOCH":2938,"BSTAR":0.0016480416,"MEAN_MOTION_DOT":0.00045411,"MEAN_MOTION_DDOT":0},{"OBJECT_NAME":"STARLINK-33652","OBJECT_ID":"2025-065B","EPOCH":"2025-10-07T06:51:05.578272","MEAN_MOTION":15.27612353,"ECCENTRICITY":0.00011872,"INCLINATION":43.0025,"RA_OF_ASC_NODE":253.0002,"ARG_OF_PERICENTER":262.6317,"MEAN_ANOMALY":97.44,"EPHEMERIS_TYPE":0,"CLASSIFICATION_TYPE":"U","NORAD_CAT_ID":63400,"ELEMENT_SET_NO":999,"REV_AT_EPOCH":2938,"BSTAR":0.0016731795,"MEAN_MOTION_DOT":0.00046114,"MEAN_MOTION_DDOT":0}]
