63376,STARLINK-33539,2025,94.1,-1.0,+,53.16,Active,0,LEO,USA,USA,Unknown,Unknown,Unknown,1 63376U 25063P   25280.36999582  .00040125  00000+0  13585-2 0  9994,2 63376  53.1599  54.6743 0001738  83.2072 276.9127 15.30224469 31092,15.30224469,0.0001738,LEO
63377,STARLINK-33634,2025,94.1,-1.0,+,53.16,Active,0,LEO,USA,USA,Unknown,Unknown,Unknown,1 63377U 25063Q   25280.34159538  .00039680  00000+0  13438-2 0  9993,2 63377  53.1607  44.5720 0001777  79.6865 280.4336 15.30222187 31286,15.30222187,0.0001777,LEO
63378,STARLINK-33640,2025,94.15,-1.0,+,53.16,Active,0,LEO,USA,USA,Unknown,Unknown,Unknown,1 63378U 25063R   25280.34464078  .00029654  00000+0  10348-2 0  9999,2 63378  53.1618  44.5882 0001356  97.6990 262.4164 15.29387561 31285,15.29387561,0.0001356,LEO
63379,STARLINK-33636,2025,94.02,-1.0,+,53.16,Active,0,LEO,USA,USA,Unknown,Unknown,Unknown,1 63379U 25063S   25280.66670139  .00031324  00000+0  10664-2 0  9990,2 63379  53.1615  43.0293 0001493  85.3532 284.1339 15.30164541  5707,15.30164541,0.0001493,LEO
63380,STARLINK-33653,2025,94.11,-1.0,+,53.16,Active,0,LEO,USA,USA,Unknown,Unknown,Unknown,1 63380U 25063T   25280.48804976  .00035110  00000+0  11910-2 0  9992,2 63380  53.1610  44.0633 0001084  91.9258 268.1867 15.30225174 31254,15.30225174,0.0001084,LEO
63381,STARLINK-33643,2025,94.1,-1.0,+,53.16,Active,0,LEO,USA,USA,Unknown,Unknown,Unknown,1 63381U 25063U   25280.35213781  .00049545  00000+0  16729-2 0  9997,2 63381  53.1607  44.6377 0002511  75.9328 284.1952 15.30216233 31280,15.30216233,0.0002511,LEO
63382,STARLINK-33633,2025,93.53,-1.0,+,53.16,Active,0,LEO,USA,USA,Unknown,Unknown,Unknown,1 63382U 25063V   25280.51508873  .00063865  00000+0  15926-2 0  9994,2 63382  53.1587  42.8094 0001441  69.1881 290.9278 15.39633352 31273,15.39633352,0.0001441,LEO
63383,STARLINK-33748,2025,94.11,-1.0,+,53.16,Active,0,LEO,USA,USA,Unknown,Unknown,Unknown,1 63383U 25063W   25280.35955743  .00019029  00000+0  65270-3 0  9990,2 63383  53.1603  55.3314 0001848  68.6299 291.4899 15.30213079 31136,15.30213079,0.0001848,LEO
63384,STARLINK-33658,2025,94.1,-1.0,+,53.16,Active,0,LEO,USA,USA,Unknown,Unknown,Unknown,1 63384U 25063X   25280.50179139  .00062600  00000+0  21079-2 0  9996,2 63384  53.1595  44.1463 0001371 100.1686 259.9469 15.30200444 31304,15.30200444,0.0001371,LEO
63385,STARLINK-33616,2025,94.1,-1.0,+,53.16,Active,0,LEO,USA,USA,Unknown,Unknown,Unknown,1 63385U 25063Y   25280.09619423  .00032211  00000+0  10938-2 0  9993,2 63385  53.1596  56.5420 0000468 142.5137 217.5896 15.30234493 31049,15.30234493,4.68e-05,LEO
63386,STARLINK-33571,2025,94.1,-1.0,+,53.16,Active,0,LEO,USA,USA,Unknown,Unknown,Unknown,1 63386U 25063Z   25280.34266886  .00052696  00000+0  17768-2 0  9990,2 63386  53.1582  55.2082 0001601  91.1234 268.9950 15.30235567 31080,15.30235567,0.0001601,LEO
63387,STARLINK-33533,2025,93.53,-1.0,+,53.16,Active,0,LEO,USA,USA,Unknown,Unknown,Unknown,1 63387U 25063AA  25280.63572304  .00052129  00000+0  13046-2 0  9994,2 63387  53.1581  42.8517 0001200  85.7964 274.3178 15.39612522 31283,15.39612522,0.00012,LEO
63388,STARLINK-33629,2025,93.52,-1.0,+,53.16,Active,0,LEO,USA,USA,Unknown,Unknown,Unknown,1 63388U 25063AB  25279.76894939  .00051719  00000+0  12929-2 0  9991,2 63388  53.1588  46.6836 0000568  33.8363 326.2678 15.39649409 31208,15.39649409,5.68e-05,LEO
63389,STARLINK-33656,2025,94.1,-1.0,+,53.16,Active,0,LEO,USA,USA,Unknown,Unknown,Unknown,1 63389U 25063AC  25280.49227303  .00017867  00000+0  61384-3 0  9995,2 63389  53.1598  44.0891 0001067  45.7041 314.4047 15.30204850 31301,15.3020485,0.0001067,LEO
63399,STARLINK-33531,2025,94.26,-1.0,+,43.0,Active,0,LEO,USA,USA,Unknown,Unknown,Unknown,1 63399U 25065A   25280.31118626  .00045411  00000+0  16480-2 0  9998,2 63399  43.0021 253.2024 0000724 270.6167  89.4602 15.27611366 29381,15.27611366,7.24e-05,LEO
63400,STARLINK-33652,2025,94.26,-1.0,+,43.0,Active,0,LEO,USA,USA,Unknown,Unknown,Unknown,1 63400U 25065B   25280.28548123  .00046114  00000+0  16732-2 0  9997,2 63400  43.0025 253.0002 0001187 262.6317  97.4400 15.27612353 29386,15.27612353,0.0001187,LEO
